[
    {
        "Altitude(m)": 558436.8135051078,
        "Argument of Periapsis(deg)": 0.0,
        "Eccentricity": 0.0,
        "Inclination(deg)": 53.0,
        "Latitude(deg)": 46.73387442347478,
        "Longitude(deg)": -87.74002868733928,
        "Mean Anomaly(deg)": 114.5455,
        "RAAN(deg)": 245.0,
        "Satellite Name": "Starlink Shell 1 1085",
        "Satellite Number": 1085,
        "Semi-Major Axis(m)": 6931778.249405717,
        "Time(s)": 0
    },
    {
        "Altitude(m)": 558367.2650771014,
        "Argument of Periapsis(deg)": 0.00034857847951123687,
        "Eccentricity": 0.0,
        "Inclination(deg)": 53.0,
        "Latitude(deg)": 46.42779779927254,
        "Longitude(deg)": -86.98700617034967,
        "Mean Anomaly(deg)": -244.82766879644322,
        "RAAN(deg)": 244.99948122992257,
        "Satellite Name": "Starlink Shell 1 1085",
        "Satellite Number": 1085,
        "Semi-Major Axis(m)": 6931778.249405717,
        "Time(s)": 10
    },
    {
        "Altitude(m)": 558296.5829023705,
        "Argument of Periapsis(deg)": 0.0006971569590224737,
        "Eccentricity": 0.0,
        "Inclination(deg)": 53.0,
        "Latitude(deg)": 46.116250909242396,
        "Longitude(deg)": -86.24289634776632,
        "Mean Anomaly(deg)": -244.20083759288653,
        "RAAN(deg)": 244.9989624598451,
        "Satellite Name": "Starlink Shell 1 1085",
        "Satellite Number": 1085,
        "Semi-Major Axis(m)": 6931778.249405717,
        "Time(s)": 20
    },
    {
        "Altitude(m)": 558224.8108686212,
        "Argument of Periapsis(deg)": 0.0010457354385337105,
        "Eccentricity": 0.0,
        "Inclination(deg)": 53.0,
        "Latitude(deg)": 45.799352408471506,
        "Longitude(deg)": -85.50765601520868,
        "Mean Anomaly(deg)": -243.57400638932984,
        "RAAN(deg)": 244.9984436897676,
        "Satellite Name": "Starlink Shell 1 1085",
        "Satellite Number": 1085,
        "Semi-Major Axis(m)": 6931778.249405717,
        "Time(s)": 30
    },
    {
        "Altitude(m)": 558151.9936225315,
        "Argument of Periapsis(deg)": 0.0013943139180449475,
        "Eccentricity": 0.0,
        "Inclination(deg)": 53.0,
        "Latitude(deg)": 45.477219647094785,
        "Longitude(deg)": -84.78123358471464,
        "Mean Anomaly(deg)": -242.94717518577315,
        "RAAN(deg)": 244.9979249196901,
        "Satellite Name": "Starlink Shell 1 1085",
        "Satellite Number": 1085,
        "Semi-Major Axis(m)": 6931778.249405717,
        "Time(s)": 40
    },
    {
        "Altitude(m)": 558078.176547549,
        "Argument of Periapsis(deg)": 0.0017428923975561844,
        "Eccentricity": 0.0,
        "Inclination(deg)": 53.0,
        "Latitude(deg)": 45.14996858088241,
        "Longitude(deg)": -84.06357062009138,
        "Mean Anomaly(deg)": -242.32034398221646,
        "RAAN(deg)": 244.9974061496127,
        "Satellite Name": "Starlink Shell 1 1085",
        "Satellite Number": 1085,
        "Semi-Major Axis(m)": 6931778.249405717,
        "Time(s)": 50
    },
    {
        "Altitude(m)": 558003.4057412635,
        "Argument of Periapsis(deg)": 0.002091470877067421,
        "Eccentricity": 0.0,
        "Inclination(deg)": 53.0,
        "Latitude(deg)": 44.817713691121895,
        "Longitude(deg)": -83.35460184665821,
        "Mean Anomaly(deg)": -241.69351277865965,
        "RAAN(deg)": 244.9968873795352,
        "Satellite Name": "Starlink Shell 1 1085",
        "Satellite Number": 1085,
        "Semi-Major Axis(m)": 6931778.249405717,
        "Time(s)": 60
    },
    {
        "Altitude(m)": 557927.7279924336,
        "Argument of Periapsis(deg)": 0.0024400493565786582,
        "Eccentricity": 0.0,
        "Inclination(deg)": 53.0,
        "Latitude(deg)": 44.48056791340007,
        "Longitude(deg)": -82.65425514679043,
        "Mean Anomaly(deg)": -241.06668157510302,
        "RAAN(deg)": 244.9963686094577,
        "Satellite Name": "Starlink Shell 1 1085",
        "Satellite Number": 1085,
        "Semi-Major Axis(m)": 6931778.249405717,
        "Time(s)": 70
    },
    {
        "Altitude(m)": 557851.1907576257,
        "Argument of Periapsis(deg)": 0.002788627836089895,
        "Eccentricity": 0.0,
        "Inclination(deg)": 53.0,
        "Latitude(deg)": 44.1386425748719,
        "Longitude(deg)": -81.96245305290188,
        "Mean Anomaly(deg)": -240.43985037154627,
        "RAAN(deg)": 244.99584983938024,
        "Satellite Name": "Starlink Shell 1 1085",
        "Satellite Number": 1085,
        "Semi-Major Axis(m)": 6931778.249405717,
        "Time(s)": 80
    },
    {
        "Altitude(m)": 557773.8421375045,
        "Argument of Periapsis(deg)": 0.0031372063156011316,
        "Eccentricity": 0.0,
        "Inclination(deg)": 53.0,
        "Latitude(deg)": 43.792047339597104,
        "Longitude(deg)": -81.2791127111257,
        "Mean Anomaly(deg)": -239.81301916798964,
        "RAAN(deg)": 244.99533106930278,
        "Satellite Name": "Starlink Shell 1 1085",
        "Satellite Number": 1085,
        "Semi-Major Axis(m)": 6931778.249405717,
        "Time(s)": 90
    },
    {
        "Altitude(m)": 557695.7308527593,
        "Argument of Periapsis(deg)": 0.0034857847951123688,
        "Eccentricity": 0.0,
        "Inclination(deg)": 53.0,
        "Latitude(deg)": 43.44089016151755,
        "Longitude(deg)": -80.60414582776072,
        "Mean Anomaly(deg)": -239.18618796443283,
        "RAAN(deg)": 244.9948122992253,
        "Satellite Name": "Starlink Shell 1 1085",
        "Satellite Number": 1085,
        "Semi-Major Axis(m)": 6931778.249405717,
        "Time(s)": 100
    },
    {
        "Altitude(m)": 557616.9062197088,
        "Argument of Periapsis(deg)": 0.003834363274623606,
        "Eccentricity": 0.0,
        "Inclination(deg)": 53.0,
        "Latitude(deg)": 43.085277244647166,
        "Longitude(deg)": -79.93746011075086,
        "Mean Anomaly(deg)": -238.55935676087606,
        "RAAN(deg)": 244.99429352914782,
        "Satellite Name": "Starlink Shell 1 1085",
        "Satellite Number": 1085,
        "Semi-Major Axis(m)": 6931778.249405717,
        "Time(s)": 110
    },
    {
        "Altitude(m)": 557537.4181255745,
        "Argument of Periapsis(deg)": 0.004182941754134842,
        "Eccentricity": 0.0,
        "Inclination(deg)": 53.0,
        "Latitude(deg)": 42.725313010047806,
        "Longitude(deg)": -79.27895918001904,
        "Mean Anomaly(deg)": -237.93252555731942,
        "RAAN(deg)": 244.99377475907033,
        "Satellite Name": "Starlink Shell 1 1085",
        "Satellite Number": 1085,
        "Semi-Major Axis(m)": 6931778.249405717,
        "Time(s)": 120
    },
    {
        "Altitude(m)": 557457.317003434,
        "Argument of Periapsis(deg)": 0.004531520233646079,
        "Eccentricity": 0.0,
        "Inclination(deg)": 53.0,
        "Latitude(deg)": 42.361100069169844,
        "Longitude(deg)": -78.62854245925304,
        "Mean Anomaly(deg)": -237.30569435376273,
        "RAAN(deg)": 244.9932559889929,
        "Satellite Name": "Starlink Shell 1 1085",
        "Satellite Number": 1085,
        "Semi-Major Axis(m)": 6931778.249405717,
        "Time(s)": 130
    },
    {
        "Altitude(m)": 557376.6538068777,
        "Argument of Periapsis(deg)": 0.0048800987131573164,
        "Eccentricity": 0.0,
        "Inclination(deg)": 53.0,
        "Latitude(deg)": 41.992739203141376,
        "Longitude(deg)": -77.98610656187998,
        "Mean Anomaly(deg)": -236.67886315020604,
        "RAAN(deg)": 244.99273721891544,
        "Satellite Name": "Starlink Shell 1 1085",
        "Satellite Number": 1085,
        "Semi-Major Axis(m)": 6931778.249405717,
        "Time(s)": 140
    },
    {
        "Altitude(m)": 557295.4799843682,
        "Argument of Periapsis(deg)": 0.005228677192668553,
        "Eccentricity": 0.0,
        "Inclination(deg)": 53.0,
        "Latitude(deg)": 41.62032934760061,
        "Longitude(deg)": -77.35154514548103,
        "Mean Anomaly(deg)": -236.05203194664924,
        "RAAN(deg)": 244.99221844883795,
        "Satellite Name": "Starlink Shell 1 1085",
        "Satellite Number": 1085,
        "Semi-Major Axis(m)": 6931778.249405717,
        "Time(s)": 150
    },
    {
        "Altitude(m)": 557213.8474533195,
        "Argument of Periapsis(deg)": 0.00557725567217979,
        "Eccentricity": 0.0,
        "Inclination(deg)": 53.0,
        "Latitude(deg)": 41.24396758267611,
        "Longitude(deg)": -76.72474874762138,
        "Mean Anomaly(deg)": -235.42520074309255,
        "RAAN(deg)": 244.99169967876043,
        "Satellite Name": "Starlink Shell 1 1085",
        "Satellite Number": 1085,
        "Semi-Major Axis(m)": 6931778.249405717,
        "Time(s)": 160
    },
    {
        "Altitude(m)": 557131.8085739044,
        "Argument of Periapsis(deg)": 0.0059258341516910265,
        "Eccentricity": 0.0,
        "Inclination(deg)": 53.0,
        "Latitude(deg)": 40.86374912773194,
        "Longitude(deg)": -76.10560611617251,
        "Mean Anomaly(deg)": -234.79836953953586,
        "RAAN(deg)": 244.99118090868302,
        "Satellite Name": "Starlink Shell 1 1085",
        "Satellite Number": 1085,
        "Semi-Major Axis(m)": 6931778.249405717,
        "Time(s)": 170
    },
    {
        "Altitude(m)": 557049.416122622,
        "Argument of Periapsis(deg)": 0.006274412631202263,
        "Eccentricity": 0.0,
        "Inclination(deg)": 53.0,
        "Latitude(deg)": 40.47976734050935,
        "Longitude(deg)": -75.49400400867357,
        "Mean Anomaly(deg)": -234.17153833597916,
        "RAAN(deg)": 244.99066213860553,
        "Satellite Name": "Starlink Shell 1 1085",
        "Satellite Number": 1085,
        "Semi-Major Axis(m)": 6931778.249405717,
        "Time(s)": 180
    }
]